{
"type": "FeatureCollection",
"name": "FEU_395",
"crs": { "type": "name", "properties": { "name": "urn:ogc:def:crs:OGC:1.3:CRS84" } },
"features": [
{ "type": "Feature", "properties": { "ORIG_FID": 1, "Shape_Leng": 12886.7158803, "Shape_Area": 7044069.0313999997 }, "geometry": { "type": "Polygon", "coordinates": [ [ [ -71.178212561584544, 49.565369467560565 ], [ -71.176138901650077, 49.564969597265851 ], [ -71.173204331630657, 49.56539744725454 ], [ -71.173071491476037, 49.566113376537686 ], [ -71.172517738214339, 49.566586409809481 ], [ -71.17122129549594, 49.566843266980044 ], [ -71.170330445766893, 49.56673387663934 ], [ -71.15988174828199, 49.563151306685107 ], [ -71.158730720087831, 49.562139760269815 ], [ -71.158578332941971, 49.561611752485824 ], [ -71.157181443954016, 49.56098857639504 ], [ -71.155901497367083, 49.560070686880913 ], [ -71.155235602669791, 49.559251656514881 ], [ -71.155180751327293, 49.558755967452782 ], [ -71.155612384335228, 49.55818037829399 ], [ -71.157309696207776, 49.55732773431528 ], [ -71.157402764280249, 49.556632787381275 ], [ -71.158215304232996, 49.555958406276304 ], [ -71.163588555301502, 49.555371112103728 ], [ -71.164458183340102, 49.555495314681359 ], [ -71.165088014146889, 49.554739787236258 ], [ -71.165925564216735, 49.554423027926767 ], [ -71.166046693953277, 49.553196391856247 ], [ -71.165656557074897, 49.552162073967736 ], [ -71.166207289766746, 49.551455259941307 ], [ -71.167362015345205, 49.551115129360859 ], [ -71.167857106630393, 49.546641785044258 ], [ -71.168121957860251, 49.546145617801372 ], [ -71.169527673412006, 49.545715523538064 ], [ -71.170678889991251, 49.546016112387655 ], [ -71.170694347301605, 49.545496355942895 ], [ -71.171121921696169, 49.544762512067123 ], [ -71.172823484083239, 49.544209157395464 ], [ -71.173406105242677, 49.543071049213943 ], [ -71.174026151576143, 49.542656644639735 ], [ -71.176589903615536, 49.542570614274481 ], [ -71.180878939548776, 49.541820042761529 ], [ -71.183025284161147, 49.540672446791426 ], [ -71.182887952006666, 49.539767835364501 ], [ -71.183946760014621, 49.53864846175609 ], [ -71.183655552679696, 49.53797744022107 ], [ -71.184117750246429, 49.536774499969837 ], [ -71.185765141931327, 49.535828101890061 ], [ -71.1873011522556, 49.535779755979163 ], [ -71.188694410260496, 49.536295244345602 ], [ -71.190416407205106, 49.536219677950015 ], [ -71.192176996081741, 49.536904876133995 ], [ -71.192567577216792, 49.537372494562582 ], [ -71.19263128375998, 49.537993813819249 ], [ -71.195490266368708, 49.538359468315363 ], [ -71.196550689977656, 49.538774524288421 ], [ -71.197163737923617, 49.539353526819461 ], [ -71.197115380546649, 49.54052485543798 ], [ -71.197753096602213, 49.540846265359988 ], [ -71.198449827576681, 49.541724829627974 ], [ -71.200775094890687, 49.542246272170601 ], [ -71.203439114025542, 49.543915490409354 ], [ -71.204586128281122, 49.546117220398521 ], [ -71.20496257563795, 49.54923126950326 ], [ -71.204762781860012, 49.550811470674589 ], [ -71.203704514244521, 49.552048948946506 ], [ -71.203029254138656, 49.552394220434458 ], [ -71.198460019735649, 49.552137915747053 ], [ -71.197109985761003, 49.552411138885809 ], [ -71.196481757110988, 49.553023159746061 ], [ -71.195693724787873, 49.553238716887648 ], [ -71.194496079628578, 49.55464068847013 ], [ -71.195480018863407, 49.555917767680299 ], [ -71.19512781637188, 49.557184513214281 ], [ -71.195495995638879, 49.557565967835693 ], [ -71.195927372850804, 49.558769041049025 ], [ -71.194547579455673, 49.560392525912405 ], [ -71.193681682674921, 49.560658352347417 ], [ -71.190415015684081, 49.560665766649237 ], [ -71.188702501323903, 49.5610789399556 ], [ -71.187462742036487, 49.561006738181206 ], [ -71.187686623317248, 49.562375808788232 ], [ -71.187418969765091, 49.563236595109387 ], [ -71.187738662983037, 49.563820810960237 ], [ -71.187509991035697, 49.564909423667906 ], [ -71.188209644099416, 49.565624874301555 ], [ -71.188585742495931, 49.566538021545163 ], [ -71.188537997917905, 49.567733493317419 ], [ -71.187800301291361, 49.56902923733584 ], [ -71.186405596233882, 49.569629463169981 ], [ -71.185150687869566, 49.56949473034291 ], [ -71.184024703549539, 49.568881057700786 ], [ -71.183567719078454, 49.568144859594121 ], [ -71.181649811136708, 49.567739748608233 ], [ -71.180270538832403, 49.567154626880182 ], [ -71.178212561584544, 49.565369467560565 ] ] ] } },
{ "type": "Feature", "properties": { "ORIG_FID": 1, "Shape_Leng": 685.73079458200004, "Shape_Area": 37353.727545499998 }, "geometry": { "type": "Polygon", "coordinates": [ [ [ -70.846396092201019, 49.639796271724137 ], [ -70.847232610796866, 49.639927192173786 ], [ -70.847802389407079, 49.640361345784548 ], [ -70.847978398604397, 49.640915246488184 ], [ -70.847666341134271, 49.641436011990827 ], [ -70.846322371279058, 49.641786126278241 ], [ -70.845191865354778, 49.641274126137446 ], [ -70.845001792130958, 49.640801332418619 ], [ -70.845175495180641, 49.640277932960188 ], [ -70.846396092201019, 49.639796271724137 ] ] ] } },
{ "type": "Feature", "properties": { "ORIG_FID": 1, "Shape_Leng": 108990.399594, "Shape_Area": 360441069.829 }, "geometry": { "type": "Polygon", "coordinates": [ [ [ -71.125649772365264, 49.677960127625511 ], [ -71.125032719585747, 49.676612532947225 ], [ -71.125392831855905, 49.67566363232816 ], [ -71.123971348263666, 49.675688651472846 ], [ -71.1227948550099, 49.674879291757179 ], [ -71.122576023383402, 49.67408742188406 ], [ -71.123086440020757, 49.673342573815724 ], [ -71.115942627406611, 49.670999931533203 ], [ -71.111959816378842, 49.67205676490746 ], [ -71.10740870831593, 49.671709044804629 ], [ -71.106306933572753, 49.67226672860312 ], [ -71.10447507946914, 49.672591265935132 ], [ -71.103542805553502, 49.672578907245523 ], [ -71.102449598259511, 49.672157050648316 ], [ -71.100614445243565, 49.672501600448882 ], [ -71.099484298638529, 49.672173094004201 ], [ -71.098449999079676, 49.671051489335063 ], [ -71.094761603312207, 49.670467740513551 ], [ -71.093991802583957, 49.670773836002596 ], [ -71.092448826069784, 49.670868479606455 ], [ -71.091102375880311, 49.670495942184132 ], [ -71.088691172213856, 49.670336171687694 ], [ -71.087928975734187, 49.670834451474441 ], [ -71.087021125212672, 49.67095668701716 ], [ -71.085378280708014, 49.670780606006467 ], [ -71.084521216592876, 49.670142926078277 ], [ -71.07989939323501, 49.669791866201038 ], [ -71.076840258325873, 49.669924281108962 ], [ -71.076125911149745, 49.669612301548085 ], [ -71.075065398385007, 49.668473024499519 ], [ -71.074745732738933, 49.667625095727608 ], [ -71.073037946007972, 49.668153040670632 ], [ -71.070389196195421, 49.66789087659874 ], [ -71.070187827167629, 49.668473653634564 ], [ -71.069739841354064, 49.668867736705444 ], [ -71.068161727802263, 49.669195989385912 ], [ -71.067907763676388, 49.670047827060287 ], [ -71.066928728440701, 49.670673036752163 ], [ -71.066157218251121, 49.670923297414255 ], [ -71.064769879481304, 49.670867032574293 ], [ -71.064014399826078, 49.670493491251975 ], [ -71.062634420740196, 49.669073795144328 ], [ -71.062142367073136, 49.668134033365831 ], [ -71.060906778055497, 49.667095515879979 ], [ -71.060629556223631, 49.666537854393354 ], [ -71.059655496027759, 49.666788854324516 ], [ -71.058479382151063, 49.666586055230944 ], [ -71.057907273203995, 49.666143242455533 ], [ -71.057361810934424, 49.665231613022748 ], [ -71.057306250780556, 49.664691817348498 ], [ -71.055079630502178, 49.664347501581929 ], [ -71.054154336631711, 49.663514776462058 ], [ -71.052908117237166, 49.663292555458177 ], [ -71.052505528414642, 49.662888625577018 ], [ -71.052313370463978, 49.661909720122125 ], [ -71.05102142474405, 49.661689862064755 ], [ -71.04979719719762, 49.660114139513283 ], [ -71.046503798492935, 49.658793599200912 ], [ -71.045230472874792, 49.657055986256346 ], [ -71.044035756645641, 49.656830295568028 ], [ -71.043128174350954, 49.656158629844136 ], [ -71.042852763542186, 49.655637133256398 ], [ -71.040314433352549, 49.654756827347214 ], [ -71.038525053556782, 49.654656397087692 ], [ -71.037538711552472, 49.654154761289625 ], [ -71.036836026977355, 49.654212627213234 ], [ -71.035711315863381, 49.654786677386518 ], [ -71.035598117415972, 49.655408240269189 ], [ -71.034961991879499, 49.656024058273324 ], [ -71.033914007513815, 49.656385953724964 ], [ -71.032535137349853, 49.656368841946083 ], [ -71.030819171193656, 49.657684672415932 ], [ -71.030436216305347, 49.658418130092038 ], [ -71.029006275917865, 49.659840030223855 ], [ -71.029585894755968, 49.66139642024261 ], [ -71.028954776201815, 49.662214148962057 ], [ -71.026654455100356, 49.662668816765319 ], [ -71.022457729179919, 49.664243205555991 ], [ -71.020852646005082, 49.664382831344653 ], [ -71.019850730068626, 49.665228761863894 ], [ -71.019551950156085, 49.665843378903759 ], [ -71.01876232549327, 49.66622771349531 ], [ -71.01615430439756, 49.666128959086272 ], [ -71.015001981597607, 49.666463360453292 ], [ -71.014291073015031, 49.666964546516205 ], [ -71.004123905106908, 49.669691536571996 ], [ -71.002886159681722, 49.669449842646081 ], [ -71.002038785175031, 49.668989284228516 ], [ -71.000543832359853, 49.668904124321493 ], [ -70.999685509990982, 49.668215987454936 ], [ -70.998256162556089, 49.667644640936139 ], [ -70.996857699527396, 49.666400545119984 ], [ -70.996531640345111, 49.665294500530528 ], [ -70.995505994234975, 49.66485585337972 ], [ -70.99517213198591, 49.663980638554527 ], [ -70.993001458465912, 49.661887271247771 ], [ -70.992378954664275, 49.661634706655818 ], [ -70.989976516994943, 49.661720240401394 ], [ -70.988710417362157, 49.660956646596759 ], [ -70.986035782671209, 49.661748460526752 ], [ -70.983337194481791, 49.661778103212988 ], [ -70.982051052846003, 49.661316673688248 ], [ -70.980949740234266, 49.660238525647109 ], [ -70.97995618701907, 49.660352714712928 ], [ -70.978949490647977, 49.660144122545027 ], [ -70.978284071974343, 49.659404032566655 ], [ -70.975829428621751, 49.658500993454858 ], [ -70.975015469326507, 49.657905859698275 ], [ -70.972743561366215, 49.65754990295931 ], [ -70.971828855310918, 49.656941516804011 ], [ -70.968681343337295, 49.657082711181928 ], [ -70.967973172516935, 49.657788651624891 ], [ -70.967333079688601, 49.65803109548861 ], [ -70.966201221477846, 49.657983360234518 ], [ -70.965545805858937, 49.657714684983944 ], [ -70.962962854319002, 49.65831021765753 ], [ -70.957591476262408, 49.657518479184759 ], [ -70.956271338955787, 49.65697338082758 ], [ -70.952503135301058, 49.6572086351499 ], [ -70.951274053705532, 49.65810614999328 ], [ -70.950327812357287, 49.658268671876129 ], [ -70.949029330434996, 49.657916286497702 ], [ -70.947406953307805, 49.657082775744939 ], [ -70.945343701087381, 49.654880677641707 ], [ -70.943366440701851, 49.65549838664456 ], [ -70.93837719326099, 49.654854634801936 ], [ -70.928291914358624, 49.65509950000984 ], [ -70.927250380173547, 49.655562339360969 ], [ -70.925815431037151, 49.655339486349945 ], [ -70.924966294216944, 49.65546105534186 ], [ -70.923562761494964, 49.65500322900624 ], [ -70.923279042943918, 49.654558798825612 ], [ -70.923304717647468, 49.653468326510279 ], [ -70.922319524655705, 49.653101319607593 ], [ -70.921091831602752, 49.653072223918642 ], [ -70.919732416420032, 49.653701861002844 ], [ -70.918516618397277, 49.653452261156289 ], [ -70.918072648514226, 49.65399911525553 ], [ -70.916961422183959, 49.654518166940058 ], [ -70.914771049169232, 49.654979049836186 ], [ -70.913022240130772, 49.654794146568342 ], [ -70.912035940475647, 49.654336890482767 ], [ -70.906852236924394, 49.65401284830817 ], [ -70.90602059710109, 49.653736449294236 ], [ -70.904214906766541, 49.65442187511151 ], [ -70.901208615172891, 49.65467963824986 ], [ -70.898300167584807, 49.654278580669718 ], [ -70.897015349966068, 49.653455667273704 ], [ -70.896443340051462, 49.653352539540215 ], [ -70.894134594582241, 49.653671427050178 ], [ -70.893297183367153, 49.654169319576361 ], [ -70.892188765741494, 49.654223006811065 ], [ -70.887394256338382, 49.652558373461389 ], [ -70.885600766586279, 49.652572284334894 ], [ -70.884687089531809, 49.651843792486233 ], [ -70.883216592742599, 49.651620935803507 ], [ -70.882619154095309, 49.651121135141636 ], [ -70.8825437666939, 49.650350218188201 ], [ -70.88107676494316, 49.650196668205702 ], [ -70.880097274320462, 49.649356297850709 ], [ -70.878459459394037, 49.648624392456242 ], [ -70.875145032124905, 49.648601039352023 ], [ -70.875089614869879, 49.649243057397392 ], [ -70.874524889272394, 49.64987503565812 ], [ -70.869662658377649, 49.65085109896755 ], [ -70.869499025753143, 49.651399716229882 ], [ -70.868869968497194, 49.651781108201575 ], [ -70.867665599597316, 49.651938315252458 ], [ -70.865962654618642, 49.651633871663641 ], [ -70.865700527111642, 49.652152704480258 ], [ -70.865136785846076, 49.652464925012417 ], [ -70.863196033896614, 49.652382842512587 ], [ -70.861861746540825, 49.651715522395683 ], [ -70.861120375151245, 49.650667115976674 ], [ -70.861098442415781, 49.6498816115704 ], [ -70.860276684600962, 49.64969145221292 ], [ -70.859638413641221, 49.649193829652027 ], [ -70.859458692479876, 49.648516044016787 ], [ -70.859654292848717, 49.648018210103402 ], [ -70.856563286864841, 49.64544391713671 ], [ -70.855079453917483, 49.64507222750985 ], [ -70.852209399211176, 49.643627202562733 ], [ -70.851652071056364, 49.642858677317832 ], [ -70.849562699839069, 49.642039825445963 ], [ -70.84940656581476, 49.641569548311445 ], [ -70.84971603786623, 49.640655474731119 ], [ -70.851262824282401, 49.639410470681938 ], [ -70.852629342767287, 49.63868289123829 ], [ -70.851750504649644, 49.63826542610235 ], [ -70.851294215295439, 49.637554849134027 ], [ -70.850012280263314, 49.636696199119065 ], [ -70.849345225276551, 49.635286533845758 ], [ -70.848209305277791, 49.634847636430841 ], [ -70.847988932444963, 49.63438834158675 ], [ -70.848156158970454, 49.633929083703499 ], [ -70.845982380640933, 49.633172833448477 ], [ -70.845705288670274, 49.632516539303865 ], [ -70.845940271944343, 49.63194532313014 ], [ -70.84465140964042, 49.631985288025739 ], [ -70.843825308142556, 49.631587678363886 ], [ -70.843556955800494, 49.631053166718189 ], [ -70.843688896331599, 49.630233789267258 ], [ -70.84346449124412, 49.629963837382732 ], [ -70.842194615067214, 49.629212265099248 ], [ -70.84001085869339, 49.628632927341066 ], [ -70.839371431708571, 49.628032554363472 ], [ -70.838193301538183, 49.628325119261355 ], [ -70.837059445793784, 49.628043733726976 ], [ -70.836284646228933, 49.627505466177141 ], [ -70.835582000202095, 49.626367341421243 ], [ -70.834398568886954, 49.625858860742554 ], [ -70.832760245626346, 49.62602236453742 ], [ -70.831742120751287, 49.625635198280726 ], [ -70.831203316870699, 49.62485301618328 ], [ -70.829579547400456, 49.625033965397336 ], [ -70.828542907727083, 49.624792496381453 ], [ -70.82769897607605, 49.624139503914115 ], [ -70.827608643556104, 49.623662020403849 ], [ -70.827833430918147, 49.62328706834009 ], [ -70.826966947559001, 49.622570662796711 ], [ -70.824867680259416, 49.622477123159044 ], [ -70.823780305535223, 49.62290945317767 ], [ -70.822585259843947, 49.622766156734983 ], [ -70.82199162761944, 49.622478572512023 ], [ -70.821628622210795, 49.621934495471443 ], [ -70.82062863437244, 49.621813906002515 ], [ -70.819710559185864, 49.621364333491933 ], [ -70.81887988998777, 49.620410076457254 ], [ -70.816581724360319, 49.619644491600482 ], [ -70.815827144578208, 49.618893713606035 ], [ -70.815694496157647, 49.618191249348186 ], [ -70.814837414680184, 49.617421834850639 ], [ -70.814893528265799, 49.616787492154664 ], [ -70.814544582797808, 49.615706972446453 ], [ -70.813702165235682, 49.615016059644333 ], [ -70.813819706727685, 49.614280054438339 ], [ -70.81454801513604, 49.613814617396038 ], [ -70.813638046459005, 49.612655128903391 ], [ -70.813022958154448, 49.612263635169747 ], [ -70.812530126727154, 49.611388284213241 ], [ -70.812820740522213, 49.610775065798272 ], [ -70.814698421567158, 49.609344729595179 ], [ -70.816081123380158, 49.607637619301137 ], [ -70.815952239216998, 49.606562361472449 ], [ -70.815462936113832, 49.605697395814794 ], [ -70.814497504397252, 49.604962127940894 ], [ -70.813466319515101, 49.604908913987593 ], [ -70.812281680144693, 49.604250146278645 ], [ -70.809799710150656, 49.604903963092696 ], [ -70.809565280417289, 49.605417072475085 ], [ -70.809047021728617, 49.605760567346287 ], [ -70.807921740882406, 49.605883860879068 ], [ -70.8067331692896, 49.605246057254682 ], [ -70.804524390376343, 49.604966433615466 ], [ -70.803698326433121, 49.60410031499886 ], [ -70.802443880260938, 49.603728917845856 ], [ -70.802032218699594, 49.603142144465018 ], [ -70.802255925007529, 49.602411208878664 ], [ -70.801891275623206, 49.599888501010113 ], [ -70.80056433595351, 49.59812434050302 ], [ -70.800539026890377, 49.596864904924438 ], [ -70.799279588937594, 49.596501151800474 ], [ -70.797308956026797, 49.595004581504995 ], [ -70.795712815882652, 49.594274161482382 ], [ -70.795039843744689, 49.593122550799059 ], [ -70.794777747960808, 49.591720812350673 ], [ -70.795598913563978, 49.590618733701021 ], [ -70.796658938088044, 49.590155165180555 ], [ -70.799140318486451, 49.580333164371339 ], [ -70.799213947929246, 49.579171452602225 ], [ -70.799678240340398, 49.578345275424269 ], [ -70.800517512261365, 49.577821177752206 ], [ -70.800145336812349, 49.576843135440249 ], [ -70.800381667034415, 49.576219752972278 ], [ -70.801527334675626, 49.575674660528747 ], [ -70.802950014050211, 49.575875370582224 ], [ -70.803151301664229, 49.575383377752544 ], [ -70.804152555950978, 49.574412556699407 ], [ -70.805196112891039, 49.574201527902424 ], [ -70.812955294874342, 49.570494038441431 ], [ -70.813265550104362, 49.569990104822082 ], [ -70.813869366543457, 49.569712254928376 ], [ -70.814480030156489, 49.568286847743487 ], [ -70.813905457697501, 49.567575422123127 ], [ -70.814050340983755, 49.566945216550145 ], [ -70.813508148163507, 49.565984934851713 ], [ -70.813394274004608, 49.564521415145407 ], [ -70.808453800143667, 49.562405442555637 ], [ -70.808173134440395, 49.56165110691677 ], [ -70.80868944486248, 49.560925449022086 ], [ -70.809911034537237, 49.560530975362269 ], [ -70.810638618696558, 49.559416571445929 ], [ -70.812691262831677, 49.558765327998493 ], [ -70.813948253538982, 49.558956848081536 ], [ -70.81590935335511, 49.558724459461089 ], [ -70.818997198054248, 49.559233411718793 ], [ -70.822822999777827, 49.561182746667107 ], [ -70.82387247609158, 49.56027479096236 ], [ -70.824787502661522, 49.560092360025031 ], [ -70.825805270952841, 49.560298673419922 ], [ -70.826138534586917, 49.559782571570047 ], [ -70.826924831272891, 49.559397580887662 ], [ -70.827970551297824, 49.559396280262114 ], [ -70.828983121601624, 49.559899434489395 ], [ -70.829754046232438, 49.559231630329649 ], [ -70.831024904949359, 49.559087677032288 ], [ -70.830678993366206, 49.558025032272027 ], [ -70.830835836041445, 49.556873639088352 ], [ -70.832214321412252, 49.555796124081347 ], [ -70.833088676778232, 49.555540209291884 ], [ -70.833164004929202, 49.554956055019673 ], [ -70.8335713200605, 49.554460170409776 ], [ -70.834969008221876, 49.553734287570407 ], [ -70.836580905421457, 49.553567614189333 ], [ -70.837560832292851, 49.55387439856294 ], [ -70.838450956666975, 49.553536267343453 ], [ -70.841219019273353, 49.548221862488916 ], [ -70.83949092975935, 49.546814900071418 ], [ -70.838010831985002, 49.546732342803701 ], [ -70.834859231502918, 49.544502994312744 ], [ -70.834480089374892, 49.543527694995241 ], [ -70.835124644009682, 49.542730810160414 ], [ -70.834816927752399, 49.542254440998072 ], [ -70.834991377095903, 49.541652121942015 ], [ -70.834455904394446, 49.54098318433023 ], [ -70.834627358932309, 49.540351752408895 ], [ -70.833482204583248, 49.539965165338756 ], [ -70.83248776958709, 49.539064727946275 ], [ -70.830372299511708, 49.53781299783234 ], [ -70.830152561731254, 49.53735370659016 ], [ -70.830343392112184, 49.536803972613633 ], [ -70.829927141237476, 49.535687104421775 ], [ -70.830421601863208, 49.535062158750407 ], [ -70.831535082923082, 49.534759611475145 ], [ -70.833167541669098, 49.535228889844994 ], [ -70.834269147991947, 49.534926707722761 ], [ -70.835589751150124, 49.535298714094665 ], [ -70.834816193957664, 49.532680075695538 ], [ -70.835078618049849, 49.532144208926624 ], [ -70.835771154848132, 49.531798196791804 ], [ -70.836032755962236, 49.531226437884982 ], [ -70.837074960122735, 49.530832318258106 ], [ -70.838474683469983, 49.531133957875426 ], [ -70.839181271566929, 49.530609243423491 ], [ -70.841286766135582, 49.530015529067718 ], [ -70.842004738982936, 49.529565620442831 ], [ -70.842870385351574, 49.529475248132819 ], [ -70.843499122014947, 49.527792793954134 ], [ -70.844526938481522, 49.527217036816396 ], [ -70.845846333580084, 49.527218964683243 ], [ -70.847229594017122, 49.527997230836824 ], [ -70.848562384814741, 49.527942438249958 ], [ -70.850089926797963, 49.528326012863573 ], [ -70.851039603285926, 49.528957148174847 ], [ -70.853082731748032, 49.529470884438403 ], [ -70.854485390588138, 49.529252764723786 ], [ -70.855927270821226, 49.52952542107527 ], [ -70.856856737134152, 49.530093115027654 ], [ -70.860117472951927, 49.531106311662754 ], [ -70.867876316059949, 49.527912948434988 ], [ -70.872062770882692, 49.528258054530141 ], [ -70.872914385069322, 49.528556444998486 ], [ -70.873903220256238, 49.529413555343645 ], [ -70.875178615902016, 49.529991544095289 ], [ -70.877100756774013, 49.531505939326607 ], [ -70.877454530143865, 49.532171976252918 ], [ -70.877268043247838, 49.532851202179337 ], [ -70.877971722007388, 49.533515197588677 ], [ -70.87922191534949, 49.533348077166551 ], [ -70.880126004562968, 49.53354097478482 ], [ -70.880620749251094, 49.5334161414387 ], [ -70.881540249493412, 49.532630153306648 ], [ -70.882999676381516, 49.532530278968473 ], [ -70.900167390506041, 49.526592342357709 ], [ -70.900278288811265, 49.525827865686466 ], [ -70.901637554640416, 49.524673461428677 ], [ -70.901919648043972, 49.523159208084742 ], [ -70.903235157667893, 49.522308160333885 ], [ -70.904436562616056, 49.522246660743555 ], [ -70.906394873623896, 49.523007621376372 ], [ -70.915630641514952, 49.520334571997289 ], [ -70.916776010170096, 49.519286559234288 ], [ -70.918407416863531, 49.519138741686504 ], [ -70.919198669148855, 49.518719343253558 ], [ -70.920871495028479, 49.518485901056444 ], [ -70.922410634613499, 49.518748962797581 ], [ -70.923388104958079, 49.520017363523195 ], [ -70.934447010883446, 49.522440607579107 ], [ -70.935977719514966, 49.522379738675482 ], [ -70.937428595999307, 49.522792787753417 ], [ -70.938498108036669, 49.523561287549903 ], [ -70.950276798884161, 49.522092621481363 ], [ -70.950577879961912, 49.521217596714543 ], [ -70.950991469764588, 49.520818980939161 ], [ -70.951910968224468, 49.520537781955944 ], [ -70.952959373935542, 49.520543846390218 ], [ -70.954401683991279, 49.51957708862318 ], [ -70.957285688814849, 49.518898537228928 ], [ -70.957837932640942, 49.518525938164998 ], [ -70.958150985979429, 49.517491911676117 ], [ -70.958633702863466, 49.516940516520222 ], [ -70.960234725619969, 49.516603435022681 ], [ -70.961914430442263, 49.517216668574214 ], [ -70.962734637143981, 49.518612989535129 ], [ -70.963684834544921, 49.519123509678231 ], [ -70.964560336818707, 49.520161231277278 ], [ -70.965525976630673, 49.519838172368303 ], [ -70.966733007299538, 49.519898158146631 ], [ -70.967347144802872, 49.520288467722239 ], [ -70.967745036063732, 49.521062922457673 ], [ -70.969173273614601, 49.521861669141451 ], [ -70.969668751428514, 49.522457357894609 ], [ -70.970473102551708, 49.522177935386985 ], [ -70.971441623870177, 49.522254710117942 ], [ -70.972546019244618, 49.521318100716968 ], [ -70.972479561776481, 49.520779427158573 ], [ -70.97284333282974, 49.520280234865851 ], [ -70.97428455458315, 49.519916565559349 ], [ -70.974537879611958, 49.518742013464347 ], [ -70.975438996283572, 49.518246464692005 ], [ -70.975818889924824, 49.517173151159732 ], [ -70.977414571092694, 49.515878403491989 ], [ -70.97778817591049, 49.514517287747992 ], [ -70.978139217923982, 49.514112284175745 ], [ -70.976991108456076, 49.512704402618461 ], [ -70.976207366965426, 49.512240646542821 ], [ -70.976056284957636, 49.511600636622774 ], [ -70.977256332269548, 49.5102474605292 ], [ -70.978874524185017, 49.510023724110482 ], [ -70.979625937103165, 49.510293515180408 ], [ -70.980451852942551, 49.511148262098374 ], [ -70.98223071890898, 49.511438698749018 ], [ -70.98320116723329, 49.512701874676829 ], [ -70.993847017641585, 49.516859006389701 ], [ -70.996954544036981, 49.516558361309833 ], [ -70.997870673108238, 49.516705675039084 ], [ -70.998993480961417, 49.517315207500822 ], [ -70.999336644994798, 49.517851917191678 ], [ -71.001741367002211, 49.519101237575008 ], [ -71.006673782392326, 49.51957330492111 ], [ -71.007559559582006, 49.518811310187083 ], [ -71.009405971889876, 49.518399394629689 ], [ -71.010464374442947, 49.518565185285887 ], [ -71.011493468080616, 49.519182430808762 ], [ -71.011756155410382, 49.519546624238593 ], [ -71.011739064056982, 49.520097241378316 ], [ -71.013104013068798, 49.52088846759451 ], [ -71.013523882676154, 49.52155966147135 ], [ -71.013550842589396, 49.522042473019241 ], [ -71.013011172785923, 49.522775042128579 ], [ -71.013697068538079, 49.523775782109297 ], [ -71.013850733090564, 49.52472628160227 ], [ -71.013130854289415, 49.525670698306534 ], [ -71.011846594601337, 49.526132563759354 ], [ -71.010640710118494, 49.526191314240961 ], [ -71.010444536523039, 49.526926307703128 ], [ -71.009812664588338, 49.527397514973131 ], [ -71.009847650766446, 49.528209140739129 ], [ -71.008713755367665, 49.529308574819403 ], [ -71.009691447924851, 49.530109739391037 ], [ -71.009822189679724, 49.530890421135872 ], [ -71.020020023034718, 49.534210352426534 ], [ -71.02100772496874, 49.534050587977575 ], [ -71.022946249773284, 49.534438596703531 ], [ -71.023769542622006, 49.534924512960828 ], [ -71.024010413065895, 49.535799037099693 ], [ -71.027841871812385, 49.536186222318356 ], [ -71.028811482798034, 49.536624922481067 ], [ -71.029591646134875, 49.538035069919815 ], [ -71.029678227010507, 49.53959222696561 ], [ -71.029257380082456, 49.540504878878657 ], [ -71.028420614142561, 49.540879292993395 ], [ -71.028956989748437, 49.541504027498895 ], [ -71.028974887343693, 49.542043492146448 ], [ -71.029999131438501, 49.542790227547627 ], [ -71.030331196456089, 49.543680549092883 ], [ -71.028769426778993, 49.545765668733495 ], [ -71.029131342005996, 49.546326481630679 ], [ -71.029368528610249, 49.548314927700659 ], [ -71.03133440747547, 49.549875663425965 ], [ -71.033510259628883, 49.554846483401356 ], [ -71.035466823377192, 49.556316942618651 ], [ -71.038240533983171, 49.556373601918104 ], [ -71.038792800568828, 49.556693495626909 ], [ -71.039740359140936, 49.557819393314759 ], [ -71.041523218822121, 49.557929832280543 ], [ -71.042516742404885, 49.558453764917047 ], [ -71.043737340961471, 49.558095046674524 ], [ -71.04495014516533, 49.558456258606483 ], [ -71.045528552305015, 49.557999480132594 ], [ -71.048609351174704, 49.556700621439674 ], [ -71.049689980281883, 49.556512984402872 ], [ -71.061741741093428, 49.558745226361744 ], [ -71.065166656145507, 49.558741442408788 ], [ -71.067305568177318, 49.558203332218881 ], [ -71.068440040390044, 49.557073662390174 ], [ -71.068397947219026, 49.55656290688826 ], [ -71.069028210795452, 49.555698084326643 ], [ -71.071839322381351, 49.554666847610918 ], [ -71.07313544354065, 49.55391111124198 ], [ -71.073831818660636, 49.553215693292685 ], [ -71.075252686127072, 49.553140785611092 ], [ -71.076739312949897, 49.554157365511543 ], [ -71.078010569001577, 49.553977953941178 ], [ -71.080376357393803, 49.552891661629239 ], [ -71.08134321563908, 49.552767572178659 ], [ -71.082872552983218, 49.5509489824261 ], [ -71.084518379631433, 49.550063877259184 ], [ -71.086211037728532, 49.546966831038439 ], [ -71.08893767987793, 49.54520589512461 ], [ -71.08642721124086, 49.544280482569292 ], [ -71.085430310176832, 49.54296124191977 ], [ -71.085034452776029, 49.542128647753664 ], [ -71.08530991940404, 49.541280897012911 ], [ -71.085373791035181, 49.539242081844648 ], [ -71.088013481240395, 49.536882917997552 ], [ -71.089970296098954, 49.536511414627341 ], [ -71.090286690810018, 49.536080576658293 ], [ -71.090198500357133, 49.534377452385719 ], [ -71.090718008883186, 49.533620779489141 ], [ -71.090304107597802, 49.532977133823778 ], [ -71.090231871625875, 49.532339807493777 ], [ -71.090720675957698, 49.5316243096863 ], [ -71.091022817340701, 49.530391337870618 ], [ -71.092510305606439, 49.529189355061476 ], [ -71.093606501236025, 49.528777822774465 ], [ -71.095183970264557, 49.527677447245892 ], [ -71.095494387144981, 49.527112183805286 ], [ -71.09641516172502, 49.526474005887785 ], [ -71.097206385210924, 49.526224449708138 ], [ -71.098252165558833, 49.52631173419914 ], [ -71.100909176236442, 49.527728152709912 ], [ -71.101973019939862, 49.527592955753377 ], [ -71.103634492935768, 49.527848564734299 ], [ -71.107690893330044, 49.527943131227815 ], [ -71.108710849197152, 49.527753420904169 ], [ -71.110277589644411, 49.526019712176826 ], [ -71.110939120409199, 49.52494415945587 ], [ -71.111679476161271, 49.524530174087374 ], [ -71.113793763026649, 49.524146448480678 ], [ -71.114853741408638, 49.524387243531457 ], [ -71.115642610118513, 49.523876811845881 ], [ -71.116526623579674, 49.523733443832882 ], [ -71.118477569802522, 49.524124247751217 ], [ -71.124606548252117, 49.524079482269542 ], [ -71.125967592484429, 49.523434437864239 ], [ -71.127038471215116, 49.523466649660492 ], [ -71.129375621249665, 49.523054428742448 ], [ -71.130160434409916, 49.522571902893041 ], [ -71.130702097675737, 49.52136914330179 ], [ -71.131732262337195, 49.520630933071224 ], [ -71.139706383197918, 49.520171100324596 ], [ -71.141564164412813, 49.518904564476301 ], [ -71.143254707141779, 49.518329497364341 ], [ -71.143815857245158, 49.517464858658755 ], [ -71.145538557545834, 49.516661716927899 ], [ -71.146544959450651, 49.515031816706042 ], [ -71.147474908431079, 49.514296104125016 ], [ -71.150601092696988, 49.513375413017833 ], [ -71.151576820683559, 49.513380389642926 ], [ -71.152427055599347, 49.51387932898966 ], [ -71.152627573603382, 49.514689508398966 ], [ -71.150896490618067, 49.518245127483176 ], [ -71.151400560368529, 49.519094444184539 ], [ -71.151311534391695, 49.521880715976167 ], [ -71.151140031259288, 49.523148519529805 ], [ -71.150745031061533, 49.52406407343306 ], [ -71.150659387291114, 49.525053651651895 ], [ -71.150867299290653, 49.525933202007032 ], [ -71.15051207223128, 49.527588630878121 ], [ -71.150745590004405, 49.528349169149479 ], [ -71.150487838341931, 49.528861358232035 ], [ -71.149928350521492, 49.529204723072105 ], [ -71.149955258412007, 49.529771874350388 ], [ -71.149596910826233, 49.53035757267596 ], [ -71.149893808714978, 49.531156331817151 ], [ -71.147783023317089, 49.533372278158168 ], [ -71.145858193776093, 49.535902570469972 ], [ -71.143590755415474, 49.537836086094423 ], [ -71.142814727484676, 49.539214960472293 ], [ -71.141890041170157, 49.540222681024808 ], [ -71.141716626619029, 49.540997639373508 ], [ -71.144185706484862, 49.546102733150619 ], [ -71.144729235395843, 49.546467146592676 ], [ -71.145822596670953, 49.547981045175945 ], [ -71.145808556217872, 49.54875165745969 ], [ -71.145254936342582, 49.549219393922755 ], [ -71.146713262890032, 49.549926645524394 ], [ -71.147935327170771, 49.552857116681295 ], [ -71.148313723689114, 49.553174119919262 ], [ -71.150368097717646, 49.552635813929228 ], [ -71.15175982741286, 49.553244595004443 ], [ -71.152841355948325, 49.552799331965645 ], [ -71.153699623571086, 49.552778619188437 ], [ -71.154943827849138, 49.55344970151129 ], [ -71.155226240352235, 49.554136205995214 ], [ -71.15287080788967, 49.556736010045029 ], [ -71.152374969952888, 49.557742627101305 ], [ -71.151538016895955, 49.558206803528492 ], [ -71.150679648231119, 49.558227499538361 ], [ -71.149988118588368, 49.557961292672211 ], [ -71.149517467414199, 49.557332059509044 ], [ -71.149474554769057, 49.556870588277199 ], [ -71.147560100596792, 49.555396976552494 ], [ -71.145492311454873, 49.555752376125682 ], [ -71.142732262323676, 49.555299128608638 ], [ -71.140927047675461, 49.55562110440696 ], [ -71.141027478252383, 49.556120007083187 ], [ -71.140768792842493, 49.556760986513723 ], [ -71.139323872157959, 49.557355006644748 ], [ -71.138992390391593, 49.557714255715346 ], [ -71.139491695926168, 49.558168917674202 ], [ -71.139664183349979, 49.559145194352823 ], [ -71.142216121903928, 49.560249438934221 ], [ -71.143853998492091, 49.559952713876015 ], [ -71.146850993621257, 49.561111199443452 ], [ -71.147570782709806, 49.56188560629608 ], [ -71.14750707992836, 49.562433388962297 ], [ -71.147168940755932, 49.562843933026187 ], [ -71.148684716884375, 49.563815840149118 ], [ -71.150353508082802, 49.564191015900327 ], [ -71.151101146218252, 49.564800588605436 ], [ -71.151456485032796, 49.565262049886464 ], [ -71.15170494920261, 49.566323416743444 ], [ -71.153036655928162, 49.567385573355949 ], [ -71.154194059305539, 49.567962746969705 ], [ -71.154390272354476, 49.568742992923021 ], [ -71.154028665886187, 49.569547209443449 ], [ -71.154105589847532, 49.569961304470674 ], [ -71.154700757716313, 49.570742390028265 ], [ -71.156061294615213, 49.571532033599603 ], [ -71.156158624628844, 49.572383638539435 ], [ -71.15587511562083, 49.572970476997796 ], [ -71.156648771308383, 49.573692302013001 ], [ -71.156603289072734, 49.57445195514395 ], [ -71.15724426721772, 49.575036863671912 ], [ -71.158159392471219, 49.576738527869622 ], [ -71.165030960026144, 49.578838986059445 ], [ -71.166465521494189, 49.578406839146375 ], [ -71.167939946666692, 49.578975322604883 ], [ -71.169661060217948, 49.581010855658 ], [ -71.169925353702951, 49.581941330322159 ], [ -71.170351341539856, 49.582494054230033 ], [ -71.170274025199276, 49.58376911166178 ], [ -71.169952141382041, 49.584329120641087 ], [ -71.171629959765156, 49.585902907995518 ], [ -71.171757865161268, 49.586562996929175 ], [ -71.172229616631725, 49.587093708010897 ], [ -71.173207489268378, 49.587377118488945 ], [ -71.173895290138006, 49.588072752032531 ], [ -71.173888831653585, 49.588631516215308 ], [ -71.176599452401405, 49.590142767278728 ], [ -71.179830142958082, 49.590955356906015 ], [ -71.18059514186983, 49.591383609922964 ], [ -71.180910243641975, 49.592248130658511 ], [ -71.183714943703478, 49.596847164151811 ], [ -71.185335759571245, 49.598179648054057 ], [ -71.186176054380439, 49.59972793712015 ], [ -71.186179587613836, 49.60044905845033 ], [ -71.183979754557654, 49.603809089959697 ], [ -71.185323679507178, 49.605296895311959 ], [ -71.185827098295576, 49.608058025626178 ], [ -71.185743620853643, 49.609022855460921 ], [ -71.185264810658126, 49.609683822700134 ], [ -71.184532598971344, 49.61014411522418 ], [ -71.184433384605896, 49.610639492628337 ], [ -71.183857732231402, 49.611366844710084 ], [ -71.182417928075154, 49.611938556265926 ], [ -71.181388259507102, 49.613948306985165 ], [ -71.183174931495955, 49.615479631421039 ], [ -71.183751913898504, 49.617747042248659 ], [ -71.184531371580249, 49.618864283730197 ], [ -71.184803269570082, 49.619771643376104 ], [ -71.184479754480478, 49.620270381620479 ], [ -71.183773146526235, 49.620676247008625 ], [ -71.182121596620135, 49.620903102514816 ], [ -71.18089975817, 49.621476475639547 ], [ -71.179755871572723, 49.621487341881966 ], [ -71.179525204848048, 49.622294007662326 ], [ -71.178823455109807, 49.622755947251591 ], [ -71.179218991549547, 49.623105711949592 ], [ -71.179312933299201, 49.623582901125076 ], [ -71.179005411671568, 49.624135726171971 ], [ -71.178849021518829, 49.625278771423183 ], [ -71.17833619092994, 49.625743179582685 ], [ -71.179051345560197, 49.625916376669196 ], [ -71.179552183360727, 49.626357693998983 ], [ -71.179851372466118, 49.627772565276864 ], [ -71.181197780859236, 49.629604633407993 ], [ -71.181857572196805, 49.631085176196208 ], [ -71.182393682860649, 49.631401833430729 ], [ -71.182915084007917, 49.632167007830247 ], [ -71.183413322718195, 49.633342171596482 ], [ -71.183207880348519, 49.634206369345875 ], [ -71.185118362279567, 49.635905977854804 ], [ -71.185176047853062, 49.636733633532131 ], [ -71.184758437669174, 49.637679859915998 ], [ -71.18524873287177, 49.638360186955929 ], [ -71.185505572906521, 49.640022190655436 ], [ -71.185367056419508, 49.640450142913345 ], [ -71.18661460152299, 49.642105522366577 ], [ -71.188270763950285, 49.643044292782683 ], [ -71.188510616381265, 49.644222265802377 ], [ -71.188040641011938, 49.644779582524784 ], [ -71.18689990646547, 49.645089265418918 ], [ -71.186883946968678, 49.645854575148824 ], [ -71.186103947571311, 49.646337944679566 ], [ -71.186437563045999, 49.64701400844389 ], [ -71.186211669561899, 49.647633484928953 ], [ -71.18637433687033, 49.648260254082857 ], [ -71.186846904670787, 49.648645048019887 ], [ -71.186978014364243, 49.649137026941482 ], [ -71.187027135566879, 49.650053793773345 ], [ -71.186501450782231, 49.651029214309624 ], [ -71.184875364954621, 49.651764410937375 ], [ -71.1845502072036, 49.652512305944903 ], [ -71.183778235074428, 49.653075349600492 ], [ -71.183336974864588, 49.653884306760979 ], [ -71.181672700960306, 49.654919603014079 ], [ -71.180880371965955, 49.655903676193411 ], [ -71.179295204708737, 49.656684710657892 ], [ -71.177250497883676, 49.657027992706105 ], [ -71.176601471244169, 49.657500043131463 ], [ -71.175487231952374, 49.657792744949774 ], [ -71.170228689739659, 49.657250189801374 ], [ -71.169618876595095, 49.658009314251338 ], [ -71.170512584055672, 49.658679047802202 ], [ -71.172058154192612, 49.659247844205055 ], [ -71.172827534607066, 49.659895022327774 ], [ -71.172846488966201, 49.660514171527595 ], [ -71.172333847552693, 49.661073762928886 ], [ -71.16953301561135, 49.661870831357476 ], [ -71.167847277560313, 49.661530961854034 ], [ -71.166565114405515, 49.661866373943447 ], [ -71.161547696893322, 49.661315808316573 ], [ -71.160984701337568, 49.663609984009646 ], [ -71.160413300635, 49.664027969883797 ], [ -71.159361517451714, 49.664285880140092 ], [ -71.157965359825496, 49.663983756223999 ], [ -71.157008331983945, 49.663358525211876 ], [ -71.156390155292087, 49.662583643562861 ], [ -71.156406867142465, 49.661728018181037 ], [ -71.155807225808658, 49.66092218350488 ], [ -71.154432909753368, 49.661890636378345 ], [ -71.153422162664015, 49.662241881477428 ], [ -71.152379787194306, 49.662431258799892 ], [ -71.151026704812637, 49.662233199173393 ], [ -71.150077399742571, 49.663095402703021 ], [ -71.149766090743654, 49.663742960789591 ], [ -71.148925128046741, 49.664140400387531 ], [ -71.147422267781991, 49.664008128073604 ], [ -71.146044071306619, 49.663258373788402 ], [ -71.14413265410262, 49.663447788682568 ], [ -71.142989547931677, 49.663164320382982 ], [ -71.142644373473559, 49.664165794839626 ], [ -71.141483629611415, 49.665316174283262 ], [ -71.140334481890974, 49.66602596981717 ], [ -71.140865881561169, 49.667136440544979 ], [ -71.140373864280434, 49.66800330915347 ], [ -71.138555034764508, 49.668459564983777 ], [ -71.137306672009927, 49.668122636048267 ], [ -71.135648449484151, 49.668074263748728 ], [ -71.13328707428181, 49.673954592687878 ], [ -71.133560795360864, 49.676285517565617 ], [ -71.132650293407181, 49.677032086667552 ], [ -71.131538338962116, 49.677180700218763 ], [ -71.131154436819585, 49.678704526000516 ], [ -71.130029164596436, 49.680122463930026 ], [ -71.128447019802593, 49.680564582493076 ], [ -71.127011460639864, 49.68018172532701 ], [ -71.126351196296028, 49.679440371556048 ], [ -71.126156143030371, 49.678401376033776 ], [ -71.125649772365264, 49.677960127625511 ] ] ] } },
{ "type": "Feature", "properties": { "ORIG_FID": 1, "Shape_Leng": 102067.073495, "Shape_Area": 264134207.57300001 }, "geometry": { "type": "Polygon", "coordinates": [ [ [ -71.309276575818672, 49.677449140152447 ], [ -71.308034648092999, 49.676530483000533 ], [ -71.30805831878061, 49.675565963161205 ], [ -71.306320419009253, 49.674425872659356 ], [ -71.306086083560032, 49.673329856686323 ], [ -71.304325717261008, 49.672291334605504 ], [ -71.302974512276805, 49.670597160715779 ], [ -71.299845572158006, 49.669994702316835 ], [ -71.298405490273851, 49.669077943553191 ], [ -71.295602092233096, 49.668074611646162 ], [ -71.2922836664481, 49.667458874159344 ], [ -71.291396557474073, 49.667815661392794 ], [ -71.289783327542764, 49.667606278837759 ], [ -71.288841173400996, 49.668119304099747 ], [ -71.287653002760266, 49.667974638658833 ], [ -71.284518636093139, 49.668562574700971 ], [ -71.284459375462887, 49.668963133548885 ], [ -71.284048959932448, 49.669362139255107 ], [ -71.281980902858677, 49.669884673480851 ], [ -71.280285677471639, 49.671396128066796 ], [ -71.279306512951081, 49.671671200444294 ], [ -71.277621351254155, 49.673203117438568 ], [ -71.277334494280467, 49.673878151806619 ], [ -71.275258439213047, 49.67541323865342 ], [ -71.274010804035854, 49.675606151542915 ], [ -71.273568592918323, 49.676198310184759 ], [ -71.271615941002693, 49.677119604776955 ], [ -71.267881029224228, 49.677638209272857 ], [ -71.265468571589295, 49.677571542346882 ], [ -71.263179805332598, 49.676774884330385 ], [ -71.259826619430669, 49.676593665633398 ], [ -71.259156754804778, 49.676242491747239 ], [ -71.258837854534306, 49.675512910398261 ], [ -71.253962214164844, 49.674931496952389 ], [ -71.253186364575527, 49.675346627241687 ], [ -71.25205930385512, 49.675336669530061 ], [ -71.250086648184208, 49.673781410592362 ], [ -71.248190764499086, 49.672906736188672 ], [ -71.246681596114286, 49.67256681154656 ], [ -71.245057541341524, 49.673670822975147 ], [ -71.244263548532444, 49.673887096377563 ], [ -71.242960215088686, 49.673571381155774 ], [ -71.240742699500544, 49.673597355251843 ], [ -71.239730705890466, 49.673056576191435 ], [ -71.238188364911451, 49.673212630929122 ], [ -71.237260553742203, 49.672661326320409 ], [ -71.236923816984003, 49.671717136969349 ], [ -71.234568411183574, 49.670776489830637 ], [ -71.234061636285972, 49.669990748205741 ], [ -71.234259288322292, 49.669100283583283 ], [ -71.233729565997081, 49.668757304220463 ], [ -71.232963936150668, 49.669021207318274 ], [ -71.231781031000452, 49.66901892348038 ], [ -71.229591237962978, 49.668114361819732 ], [ -71.227306373119745, 49.667633000693705 ], [ -71.225066964043094, 49.666449276186654 ], [ -71.223644262508472, 49.666957890717548 ], [ -71.221639219151413, 49.667153258869561 ], [ -71.220822229288487, 49.666976936387222 ], [ -71.220110565978558, 49.666452383029807 ], [ -71.218061162534084, 49.666329754097561 ], [ -71.216369336442469, 49.66701237161503 ], [ -71.216491048805651, 49.667889052684558 ], [ -71.215704079376337, 49.668638094536981 ], [ -71.21427304786765, 49.66879533457135 ], [ -71.213563638093319, 49.669307542332568 ], [ -71.211663294440953, 49.669998433863007 ], [ -71.210785333740105, 49.670041577162991 ], [ -71.209637069360028, 49.669746817459306 ], [ -71.208248257295736, 49.671864286944114 ], [ -71.207057238546696, 49.672386810971929 ], [ -71.205400777981993, 49.672136949878414 ], [ -71.204549451633184, 49.671230001010834 ], [ -71.201793245472786, 49.670907299106538 ], [ -71.201007117010803, 49.670412484454715 ], [ -71.201094321933283, 49.669283006686243 ], [ -71.200475017326482, 49.667027949175591 ], [ -71.200862394350182, 49.665727622461169 ], [ -71.201429430833201, 49.665121587212575 ], [ -71.202103646123902, 49.663599716034533 ], [ -71.201834643087395, 49.662540266274362 ], [ -71.201867834748953, 49.660530545740343 ], [ -71.201319742795917, 49.658950895456499 ], [ -71.200835185002077, 49.655969523922288 ], [ -71.201135827801082, 49.654243165396899 ], [ -71.200897135442702, 49.65342056732414 ], [ -71.201002487774787, 49.651639172689876 ], [ -71.200712863018765, 49.650191540207132 ], [ -71.201067825330455, 49.649314763803837 ], [ -71.200880871632762, 49.647345959917367 ], [ -71.199251045836832, 49.646662077682819 ], [ -71.198799239221401, 49.645665155926501 ], [ -71.198965625563403, 49.644764785682518 ], [ -71.199534185710135, 49.644111636847008 ], [ -71.200419172388393, 49.641036751780099 ], [ -71.199582724200297, 49.639922378225243 ], [ -71.199322136801243, 49.636748373952223 ], [ -71.198782693205416, 49.63637658771701 ], [ -71.197989122359587, 49.636592520931835 ], [ -71.197038305863856, 49.636447859998441 ], [ -71.194146122637719, 49.634901768590119 ], [ -71.193919612309344, 49.633872750128077 ], [ -71.194179398808757, 49.633323400873472 ], [ -71.192123060420045, 49.630743926318196 ], [ -71.191448575154823, 49.629034205503665 ], [ -71.191554810414928, 49.627300432049132 ], [ -71.190390022110378, 49.625908038451861 ], [ -71.190375224187136, 49.624838287605257 ], [ -71.189923343557282, 49.623476975073068 ], [ -71.190239602687086, 49.622720388439667 ], [ -71.191157988544433, 49.621891370940716 ], [ -71.190872412755084, 49.620210249948173 ], [ -71.191048351800703, 49.619581472252733 ], [ -71.192075134196372, 49.618643800915123 ], [ -71.192740746495645, 49.617101892510441 ], [ -71.193304949124951, 49.616660373224548 ], [ -71.195327132665042, 49.615845667059361 ], [ -71.196166949590491, 49.615725254518047 ], [ -71.196230399967405, 49.614572366053061 ], [ -71.196602035177236, 49.614075853036631 ], [ -71.196489816061856, 49.612863026525226 ], [ -71.195438656909914, 49.609683401536927 ], [ -71.195705509744514, 49.608889453476337 ], [ -71.196947082218713, 49.607171523261918 ], [ -71.196956928247189, 49.606103445318844 ], [ -71.195120525894666, 49.602571740940341 ], [ -71.194986174261885, 49.60060568527382 ], [ -71.195710662535234, 49.599535172946069 ], [ -71.195465515098718, 49.598725907831252 ], [ -71.195623450624126, 49.598152770575226 ], [ -71.196562588080297, 49.597575365574464 ], [ -71.198190969363964, 49.595955185318722 ], [ -71.198153841380829, 49.595284098847614 ], [ -71.198757674045709, 49.59434809819642 ], [ -71.200217918974914, 49.593582201833698 ], [ -71.200242267716135, 49.592881823468993 ], [ -71.199816279101611, 49.59229538700307 ], [ -71.199724076729083, 49.591620867979799 ], [ -71.200355682654745, 49.589856463834792 ], [ -71.201091079609299, 49.589321013123872 ], [ -71.203518443870891, 49.588969590259929 ], [ -71.20386193976141, 49.588632842334533 ], [ -71.203880215369864, 49.586173811427727 ], [ -71.204739250941671, 49.584964779728068 ], [ -71.204326769100476, 49.584166981684042 ], [ -71.204329895600992, 49.582474916426712 ], [ -71.203969961489335, 49.58121166887431 ], [ -71.204316181082433, 49.579473151456753 ], [ -71.20427058787709, 49.577491084322176 ], [ -71.203927861183189, 49.577065568046329 ], [ -71.203939251060774, 49.576447852883327 ], [ -71.205019926198887, 49.575842619248512 ], [ -71.206626648267616, 49.575818909993501 ], [ -71.207977322815793, 49.576077701651954 ], [ -71.210792945536951, 49.577984792656274 ], [ -71.212030303560439, 49.577986821097753 ], [ -71.21452744081013, 49.579551582698677 ], [ -71.215970367368485, 49.579715488030118 ], [ -71.217428356135457, 49.579320289194349 ], [ -71.215940539781386, 49.578238202690521 ], [ -71.214545102444731, 49.576802353541567 ], [ -71.214610879929054, 49.575444237689155 ], [ -71.215381735862195, 49.574722507156736 ], [ -71.216708469411756, 49.574006544317598 ], [ -71.2182930309977, 49.573863057535036 ], [ -71.219428768520018, 49.573280653215562 ], [ -71.220706132991268, 49.573432974325918 ], [ -71.222148125128911, 49.574263750945462 ], [ -71.224790929641102, 49.576459705699278 ], [ -71.225464148472554, 49.577338319880361 ], [ -71.227968621645061, 49.578766454617146 ], [ -71.228264287011157, 49.579372037712567 ], [ -71.229597547464948, 49.580510848076145 ], [ -71.231062913387547, 49.58066707845682 ], [ -71.233431444148323, 49.582427715122343 ], [ -71.234509603464957, 49.582934698706069 ], [ -71.234982260004912, 49.584009351266737 ], [ -71.235840125996447, 49.584344288336368 ], [ -71.236993461237631, 49.585524620712228 ], [ -71.23708493286739, 49.586491520136541 ], [ -71.23648609814299, 49.587102452913669 ], [ -71.237630529587392, 49.588373756040518 ], [ -71.237762753707017, 49.589510176286382 ], [ -71.240380777370859, 49.590204199371826 ], [ -71.242067354817607, 49.591111038350029 ], [ -71.242576937596638, 49.591684166576094 ], [ -71.243587726903939, 49.591959135961211 ], [ -71.244961078316877, 49.593017651887841 ], [ -71.246623794730624, 49.592489271003473 ], [ -71.245402261718255, 49.591612788671981 ], [ -71.245298245470437, 49.589980949382031 ], [ -71.244443666878013, 49.589231201320082 ], [ -71.243022356411174, 49.588557370722022 ], [ -71.242410310809603, 49.587444936287078 ], [ -71.242620149143278, 49.586814295210225 ], [ -71.24095472763544, 49.585562735827963 ], [ -71.240590942973341, 49.584677855299205 ], [ -71.24102676193273, 49.583835452112986 ], [ -71.238109385673795, 49.58192790525559 ], [ -71.237558345503501, 49.580936812034082 ], [ -71.236552394245038, 49.580039798807434 ], [ -71.235821349307756, 49.57873140759186 ], [ -71.235050188795483, 49.577939031727162 ], [ -71.234003817899122, 49.576025672899547 ], [ -71.233292105103928, 49.57545482990276 ], [ -71.232947024366695, 49.574064073106207 ], [ -71.22997067962423, 49.572062372030871 ], [ -71.227018519920108, 49.569435421340572 ], [ -71.226348428890731, 49.568131957798215 ], [ -71.226261836627557, 49.567431426281338 ], [ -71.224182022032011, 49.565550637261111 ], [ -71.222988180957941, 49.563234228962159 ], [ -71.222798153972263, 49.56021505519589 ], [ -71.222573461853329, 49.559649715734253 ], [ -71.223259779695994, 49.558122840483094 ], [ -71.223277506681683, 49.556444290445384 ], [ -71.221851377275343, 49.553490933156269 ], [ -71.221891036040304, 49.552500934049071 ], [ -71.22242472575455, 49.551947623521613 ], [ -71.22323300949752, 49.551694815262259 ], [ -71.225247396072263, 49.551968531115001 ], [ -71.225482623156211, 49.551112399325163 ], [ -71.226019854957855, 49.550535791298827 ], [ -71.226997892651823, 49.550172834387446 ], [ -71.228340276319116, 49.550048754132675 ], [ -71.22985458080025, 49.549328508232072 ], [ -71.230474338984038, 49.548529682263286 ], [ -71.230494491647022, 49.546855225074324 ], [ -71.231059986981606, 49.546359428547717 ], [ -71.232200851551468, 49.54593914040661 ], [ -71.231410207721737, 49.545491663600792 ], [ -71.231140532686055, 49.544912808145121 ], [ -71.231244683056559, 49.544436563764805 ], [ -71.231821833169576, 49.543887018638969 ], [ -71.229875385003965, 49.542996327939996 ], [ -71.229168623506226, 49.541505610030761 ], [ -71.229252475050757, 49.540952780951656 ], [ -71.230356754781639, 49.539672697408633 ], [ -71.227538193755066, 49.538566342487769 ], [ -71.225080475787308, 49.536977949408865 ], [ -71.223398222467807, 49.536712655043473 ], [ -71.222681884620769, 49.536212314533685 ], [ -71.221935391712677, 49.533969135947814 ], [ -71.222558935591366, 49.532909473046558 ], [ -71.221650584396073, 49.532354422419921 ], [ -71.221346734316498, 49.531807351051086 ], [ -71.221347066914149, 49.530694799284817 ], [ -71.221857463351569, 49.530154560220829 ], [ -71.222690288894256, 49.529886003903236 ], [ -71.224127828433097, 49.529880603782416 ], [ -71.225271602731581, 49.530409046607794 ], [ -71.225620106075411, 49.531071768499409 ], [ -71.226006063232219, 49.530559886247616 ], [ -71.226874324285006, 49.530121103931485 ], [ -71.227732140645102, 49.530099813924551 ], [ -71.228560745024836, 49.53038748590248 ], [ -71.228741603498861, 49.530268715146718 ], [ -71.228469153548204, 49.529686098676422 ], [ -71.228645267774851, 49.52902019993045 ], [ -71.229329096278832, 49.528586766984617 ], [ -71.230143600011004, 49.528456422511773 ], [ -71.230958195674404, 49.528632654501948 ], [ -71.232065386279302, 49.529533475452737 ], [ -71.23323644777976, 49.529991908433999 ], [ -71.235856219447555, 49.530059613668456 ], [ -71.237472351771956, 49.530733722502568 ], [ -71.239375420391383, 49.530296170487688 ], [ -71.241927291444981, 49.530735662946888 ], [ -71.243247174108888, 49.53060298279464 ], [ -71.24398691083212, 49.530884180899236 ], [ -71.244951663167697, 49.531684770652731 ], [ -71.246624569397525, 49.534021744024912 ], [ -71.248631057926289, 49.534686330915299 ], [ -71.249684195240832, 49.534600706019035 ], [ -71.250629816743228, 49.534947395094775 ], [ -71.252455392306473, 49.534318624110369 ], [ -71.252295554104862, 49.533848969822166 ], [ -71.252567269196064, 49.532853405328169 ], [ -71.25316551991763, 49.532032010669418 ], [ -71.253378247010531, 49.531140277081683 ], [ -71.253103649398724, 49.529852506754963 ], [ -71.25345627074411, 49.529080944700105 ], [ -71.254228126448083, 49.528460375272601 ], [ -71.254377414287873, 49.52708634583351 ], [ -71.255896675835004, 49.526408686230468 ], [ -71.257223354891508, 49.526126751220175 ], [ -71.258160397833166, 49.526185902978398 ], [ -71.259575283872749, 49.526494984829107 ], [ -71.260327266789972, 49.526986635767003 ], [ -71.260962162427219, 49.527735761825376 ], [ -71.261368389683497, 49.528971254156751 ], [ -71.264258241023413, 49.52925950217282 ], [ -71.265329309833916, 49.529729373716471 ], [ -71.265704195235784, 49.530115664395744 ], [ -71.265992894359186, 49.531011896800997 ], [ -71.268254465469397, 49.530121657763047 ], [ -71.270105869354921, 49.530597253928477 ], [ -71.270684334044319, 49.531285915652468 ], [ -71.272510045478953, 49.535807742406554 ], [ -71.273657791015481, 49.536997496705801 ], [ -71.274170817374667, 49.538235577719021 ], [ -71.276192670639034, 49.538988363142948 ], [ -71.276650022428271, 49.539366271650231 ], [ -71.276898655337817, 49.540800117442387 ], [ -71.276640373421301, 49.542040503522806 ], [ -71.277593990770953, 49.542382625127757 ], [ -71.278524059347021, 49.543729912368491 ], [ -71.279707917326505, 49.544527019012243 ], [ -71.281829504786742, 49.544246497139312 ], [ -71.284706624161032, 49.544823128860884 ], [ -71.287297382609836, 49.544667976952567 ], [ -71.287492005135107, 49.543799380936896 ], [ -71.288688827513226, 49.543305607876434 ], [ -71.29083125359594, 49.543539011610527 ], [ -71.292331722700666, 49.544495413546969 ], [ -71.296876065789675, 49.543849324197616 ], [ -71.29801598074809, 49.543055617034007 ], [ -71.299950634535236, 49.542858783127244 ], [ -71.300380329217916, 49.542418295335189 ], [ -71.301664191613071, 49.54197405331594 ], [ -71.302571662956183, 49.540905610562859 ], [ -71.301376542955822, 49.538535894870861 ], [ -71.300590020411065, 49.538159504502318 ], [ -71.300346366035541, 49.537409888950663 ], [ -71.300965529148385, 49.536629883935575 ], [ -71.302406394698878, 49.53597354862378 ], [ -71.303922298274642, 49.534633095973447 ], [ -71.30405811439087, 49.534181139639671 ], [ -71.302266413835966, 49.533535593292719 ], [ -71.301690444978249, 49.532778828312864 ], [ -71.30222878371373, 49.531976359692031 ], [ -71.302807342866089, 49.529967338174551 ], [ -71.303295439404792, 49.529462616552998 ], [ -71.303379005849806, 49.52866956183361 ], [ -71.30472762306043, 49.52799674575671 ], [ -71.305744182949283, 49.527970927019005 ], [ -71.30698382104498, 49.528282747784672 ], [ -71.309044415268119, 49.528072181884667 ], [ -71.311670642860761, 49.526166265330922 ], [ -71.311914077951755, 49.524968586120771 ], [ -71.313968690493809, 49.523384880062466 ], [ -71.314300485356483, 49.522668377133989 ], [ -71.314012248633063, 49.522104661053177 ], [ -71.314174752049666, 49.521406427951 ], [ -71.315217661094806, 49.5205478867951 ], [ -71.316296354318141, 49.520326284631139 ], [ -71.315734220242078, 49.51888007417044 ], [ -71.316366690853002, 49.518103532157575 ], [ -71.317157693863209, 49.517886769348785 ], [ -71.318711117713889, 49.517990661572505 ], [ -71.319424760369003, 49.518301026324131 ], [ -71.319829558033277, 49.518923694861613 ], [ -71.320375334212471, 49.518733760126601 ], [ -71.320745997425604, 49.518130882081152 ], [ -71.321496779892684, 49.517610113848072 ], [ -71.321481106394103, 49.516921720995015 ], [ -71.322141618606324, 49.516296416051155 ], [ -71.322112863613, 49.515572709309232 ], [ -71.323025746933311, 49.514796438092844 ], [ -71.323259849964145, 49.51426938955575 ], [ -71.326203885618185, 49.513357875104504 ], [ -71.327010015692863, 49.51245046179497 ], [ -71.328391503706271, 49.509883021225846 ], [ -71.328016570347117, 49.50933691823829 ], [ -71.328036566831827, 49.508543541651434 ], [ -71.328320519894405, 49.508111114667642 ], [ -71.32793507567412, 49.506812121289968 ], [ -71.328511622141306, 49.506123284616997 ], [ -71.329768816227926, 49.505903770353406 ], [ -71.333135820356787, 49.50607131653053 ], [ -71.336912073346767, 49.506892117999989 ], [ -71.337838036702479, 49.507313490346284 ], [ -71.33931746915809, 49.506853768293205 ], [ -71.341338382409845, 49.506930775105559 ], [ -71.342772063609303, 49.507586470100939 ], [ -71.347379870223833, 49.507381485528185 ], [ -71.350133758190353, 49.506618368033763 ], [ -71.351138278625527, 49.506672354071277 ], [ -71.353515054461724, 49.507989278253646 ], [ -71.353744954720625, 49.508936014912166 ], [ -71.353546769601479, 49.510425834653631 ], [ -71.354552209412205, 49.511987025540229 ], [ -71.355115800524572, 49.51237227913937 ], [ -71.356819170910995, 49.512681057788825 ], [ -71.357882105379772, 49.513539488272862 ], [ -71.358358336255662, 49.514530085233091 ], [ -71.3577000700746, 49.51567481713068 ], [ -71.357880133828246, 49.515897396347953 ], [ -71.361408473450567, 49.515941087503585 ], [ -71.363065794275656, 49.515486486958359 ], [ -71.364057161980199, 49.5142755228281 ], [ -71.365173958903853, 49.513717059961557 ], [ -71.365989101323621, 49.512243961114201 ], [ -71.367141003929234, 49.511567085174768 ], [ -71.366064191472105, 49.511325380646035 ], [ -71.365563179696295, 49.510871768388931 ], [ -71.365544917962922, 49.508295581852529 ], [ -71.366485553975863, 49.507019651629086 ], [ -71.368404759968655, 49.506528907450921 ], [ -71.367022123576263, 49.505663353391313 ], [ -71.36675414433374, 49.504993988574597 ], [ -71.367086021050952, 49.504408706927613 ], [ -71.36858000319215, 49.503532488026394 ], [ -71.367924049564905, 49.502779665291364 ], [ -71.368589154981677, 49.501877522592345 ], [ -71.369879500672894, 49.50152373317971 ], [ -71.373026577921337, 49.501437693204103 ], [ -71.374249286524304, 49.50177593135237 ], [ -71.377290998226471, 49.503586223772004 ], [ -71.378461737103549, 49.503598924837505 ], [ -71.379576224726335, 49.503976753733255 ], [ -71.38164460433299, 49.503892365269706 ], [ -71.382315524821166, 49.504353593006208 ], [ -71.382534848141745, 49.5051189701352 ], [ -71.382116378118567, 49.50603134847487 ], [ -71.383314554130862, 49.506610730187873 ], [ -71.383803562134389, 49.5076954973296 ], [ -71.384002425541794, 49.508706103916886 ], [ -71.383359062077616, 49.509840671622889 ], [ -71.384054488539121, 49.510202971628729 ], [ -71.384506077978997, 49.510781370763333 ], [ -71.385130048852105, 49.512010407818224 ], [ -71.385068626921523, 49.512571923085694 ], [ -71.385895160140905, 49.513481945094014 ], [ -71.386036180145581, 49.514844568389321 ], [ -71.385122827935518, 49.515968206594096 ], [ -71.38407696616224, 49.516243220251859 ], [ -71.384117211509633, 49.516931845832971 ], [ -71.383572465955524, 49.517925946507347 ], [ -71.382089461642892, 49.519680335444697 ], [ -71.383082313092757, 49.520956616273821 ], [ -71.38287721368124, 49.522123953429968 ], [ -71.382115136145742, 49.5226853535613 ], [ -71.380975979734316, 49.522866985171397 ], [ -71.37967455527523, 49.523892357676075 ], [ -71.377666158688186, 49.524142920257866 ], [ -71.375083809611084, 49.528360005234191 ], [ -71.375928753067456, 49.537310640132908 ], [ -71.374807553999318, 49.538357306181759 ], [ -71.37509927029646, 49.540333667298476 ], [ -71.373374552725281, 49.544305538787626 ], [ -71.372765479879746, 49.544801187773523 ], [ -71.371169910205495, 49.557345779018085 ], [ -71.370605130153919, 49.557954108214126 ], [ -71.369355613004231, 49.558260059057268 ], [ -71.368260352327439, 49.563295372177691 ], [ -71.368604573849467, 49.563854198840843 ], [ -71.368250809205392, 49.56565419636236 ], [ -71.368601166263218, 49.566217623141831 ], [ -71.368520439190235, 49.567937912639671 ], [ -71.368226479612048, 49.56837934181921 ], [ -71.367519902611022, 49.568682564435839 ], [ -71.369533030325968, 49.571545021350111 ], [ -71.370494306642087, 49.571508240244874 ], [ -71.371535544493312, 49.571912408550851 ], [ -71.374036694545779, 49.572187262022162 ], [ -71.375272326540369, 49.571836166069552 ], [ -71.376232781242436, 49.571952547922955 ], [ -71.379049120998687, 49.570455900849495 ], [ -71.380078773653636, 49.570215406419642 ], [ -71.380934566467829, 49.570243467443383 ], [ -71.38191402994569, 49.570661176922442 ], [ -71.383268705627088, 49.570663503895325 ], [ -71.383961333801707, 49.571037942235556 ], [ -71.384885194578885, 49.572345851320868 ], [ -71.387036709460148, 49.573480326103805 ], [ -71.387654020913601, 49.574249668353644 ], [ -71.394570163139306, 49.576946400130119 ], [ -71.396224571886037, 49.578485764299039 ], [ -71.396143769326386, 49.579042063926828 ], [ -71.39534052752721, 49.579691211885269 ], [ -71.395243397888223, 49.580137752642585 ], [ -71.395329968507085, 49.580709195967984 ], [ -71.396139051865845, 49.581546732009429 ], [ -71.395946724648852, 49.582950545231057 ], [ -71.396490939998401, 49.583919499942382 ], [ -71.397784837182954, 49.58437876222316 ], [ -71.399749679906463, 49.584616003121646 ], [ -71.401120243821467, 49.585191556031717 ], [ -71.401554603982106, 49.585663250493369 ], [ -71.401789209554352, 49.586732119819992 ], [ -71.401087780642669, 49.587396186964675 ], [ -71.401047071200878, 49.588071951394774 ], [ -71.401388111810334, 49.588555027566279 ], [ -71.401335631398368, 49.589364222187598 ], [ -71.400263863765602, 49.590498433137434 ], [ -71.400171449264136, 49.591033052869264 ], [ -71.401091672100605, 49.592803219916632 ], [ -71.402446552047721, 49.593261692145255 ], [ -71.403513472269793, 49.59310653811162 ], [ -71.405047981288035, 49.593530672059956 ], [ -71.405618058271699, 49.594014479509639 ], [ -71.406008464905923, 49.595792495442929 ], [ -71.408443228219753, 49.596542586468345 ], [ -71.410036039314107, 49.59676718738212 ], [ -71.412809057388344, 49.597803084028477 ], [ -71.418087383520685, 49.59818302459415 ], [ -71.421749174995384, 49.598017431975933 ], [ -71.422726244781856, 49.597707599671857 ], [ -71.423897677971112, 49.59788447775945 ], [ -71.428834301759892, 49.596979055370085 ], [ -71.430316530086287, 49.59752262643827 ], [ -71.433270999606464, 49.598075394229959 ], [ -71.435606052560061, 49.598142591324994 ], [ -71.437023286912208, 49.597829460750454 ], [ -71.439167849766037, 49.598322067854127 ], [ -71.44088081374781, 49.598152638439998 ], [ -71.443916668359378, 49.598994945428146 ], [ -71.445555120738049, 49.59876676699443 ], [ -71.446465601908358, 49.59816145392054 ], [ -71.447596559520335, 49.598006298161394 ], [ -71.448626554331682, 49.598471940256111 ], [ -71.450100895091921, 49.600220784294137 ], [ -71.451539265598356, 49.600976226616766 ], [ -71.455513243206184, 49.601787855530979 ], [ -71.456973433259819, 49.601654633227767 ], [ -71.459568815126687, 49.601976460002504 ], [ -71.461013555890801, 49.602822633497247 ], [ -71.463715588808881, 49.603510646440974 ], [ -71.465098530054817, 49.604240758311221 ], [ -71.469022579886115, 49.604166465860118 ], [ -71.474224100619594, 49.603197978482825 ], [ -71.478879692252249, 49.602653540352065 ], [ -71.47991858756906, 49.602875349457832 ], [ -71.481631550011542, 49.604164921232211 ], [ -71.483340096624701, 49.604422240200648 ], [ -71.489577895549573, 49.604003191850694 ], [ -71.490577796079236, 49.603669021275124 ], [ -71.495814807220455, 49.603440875967138 ], [ -71.496547284841441, 49.603149604859333 ], [ -71.499147707003715, 49.602845191872163 ], [ -71.507051113531062, 49.604037625978059 ], [ -71.510919689650663, 49.603927108499427 ], [ -71.518628523407671, 49.605262359103016 ], [ -71.519345813849171, 49.605798822345143 ], [ -71.519320137471084, 49.606642502106666 ], [ -71.52079146726652, 49.610046807386631 ], [ -71.522847217446085, 49.611434315907672 ], [ -71.522533102558171, 49.61366876961268 ], [ -71.522778617627793, 49.61455198789821 ], [ -71.524320316668323, 49.616197696050136 ], [ -71.525740320096773, 49.620089343834195 ], [ -71.527315607394698, 49.621816100302745 ], [ -71.526161047189262, 49.623500140982422 ], [ -71.525565864519393, 49.623908250585103 ], [ -71.523535524181767, 49.627822371679144 ], [ -71.524180085720431, 49.629274680830328 ], [ -71.523569889246346, 49.629979548590597 ], [ -71.523607702808505, 49.630521126460209 ], [ -71.522903118333758, 49.632005350161393 ], [ -71.523243613139954, 49.632423034576128 ], [ -71.52341010694694, 49.633504288068615 ], [ -71.523183507002045, 49.636063251665163 ], [ -71.522105499236645, 49.63716642768636 ], [ -71.521248808437761, 49.637438363087206 ], [ -71.520113375188259, 49.639394402527564 ], [ -71.517791728767435, 49.640827335672263 ], [ -71.516205724479278, 49.641349554805672 ], [ -71.514602967149159, 49.641199755243058 ], [ -71.513902402250153, 49.640754238480646 ], [ -71.513630395720867, 49.640124325072456 ], [ -71.514009924384126, 49.638751220527716 ], [ -71.513187906706676, 49.638248817150419 ], [ -71.512801366841757, 49.637643165830887 ], [ -71.50749289691187, 49.637015839342361 ], [ -71.506702136776781, 49.637339024289439 ], [ -71.506459797259708, 49.638034654456234 ], [ -71.50450778948273, 49.639656540535441 ], [ -71.502493900891281, 49.64031455076217 ], [ -71.502950587772617, 49.641027599908227 ], [ -71.502338283423242, 49.64183191144425 ], [ -71.501618742868573, 49.642138388201339 ], [ -71.500255719796854, 49.642242468903973 ], [ -71.499226673912105, 49.643108484586222 ], [ -71.499310769340894, 49.643562405981292 ], [ -71.499091311914711, 49.643938718410872 ], [ -71.497810817263513, 49.644751789068138 ], [ -71.496779383494399, 49.644970807558764 ], [ -71.490996530196725, 49.644894794912851 ], [ -71.488582378897192, 49.646236776956243 ], [ -71.486985147984228, 49.646740156792085 ], [ -71.486149799187316, 49.646767759644895 ], [ -71.482975880831532, 49.648320112650055 ], [ -71.481941185592575, 49.648461288886928 ], [ -71.480908838855143, 49.648213107310625 ], [ -71.479538135364649, 49.648710563795653 ], [ -71.478673795589785, 49.648734019074539 ], [ -71.476051475829067, 49.64995449385431 ], [ -71.474549455395646, 49.649917618467533 ], [ -71.473101075309799, 49.649535100131011 ], [ -71.47189098711678, 49.648570121380942 ], [ -71.468643966338249, 49.648602227135171 ], [ -71.465384592473214, 49.650231864368344 ], [ -71.463671395444365, 49.650522845929352 ], [ -71.461312527676753, 49.650223702919092 ], [ -71.460200486303165, 49.650703225719653 ], [ -71.447704530008693, 49.650954976581964 ], [ -71.446605355896352, 49.650744281514292 ], [ -71.445251298180736, 49.651008508466987 ], [ -71.443378960344859, 49.650867588686658 ], [ -71.441835484068164, 49.651047889720772 ], [ -71.440439267311191, 49.650620438302148 ], [ -71.434789800001397, 49.652285803658742 ], [ -71.434000848696641, 49.653559471084385 ], [ -71.434302624568645, 49.654760584627681 ], [ -71.43373211180743, 49.656090566927169 ], [ -71.433750218579277, 49.65715030176672 ], [ -71.433007343460616, 49.657714222459248 ], [ -71.431954589967035, 49.658024624292096 ], [ -71.430148629396868, 49.659613925452462 ], [ -71.429355741213229, 49.659831528271667 ], [ -71.426142606816555, 49.659840893875263 ], [ -71.424278646553944, 49.658994165448952 ], [ -71.422671974545537, 49.659402951971956 ], [ -71.421072641375346, 49.660940960262622 ], [ -71.419189514194414, 49.66158577352909 ], [ -71.419097482249981, 49.6624669103266 ], [ -71.418587222147508, 49.663010468450906 ], [ -71.417140835189798, 49.663426938859452 ], [ -71.415709012402701, 49.664638288568462 ], [ -71.413994300388595, 49.665237658643285 ], [ -71.413832821880163, 49.665738869256863 ], [ -71.413197538411239, 49.666357176830758 ], [ -71.412042794450727, 49.666684777328001 ], [ -71.410886008199867, 49.666348158417144 ], [ -71.410428960589257, 49.667134333900833 ], [ -71.410247155224241, 49.668155737834795 ], [ -71.409634129634838, 49.668702619257822 ], [ -71.408670373569976, 49.669100838609438 ], [ -71.407046479239966, 49.669031096028469 ], [ -71.405615118164718, 49.66799041877595 ], [ -71.403989719101716, 49.667312007690803 ], [ -71.401899570349144, 49.667859445698078 ], [ -71.400701448884107, 49.668975444781722 ], [ -71.398817873657947, 49.669538023963575 ], [ -71.397393540482213, 49.669359356402509 ], [ -71.395109981956026, 49.668370761783237 ], [ -71.386317354454846, 49.668430227336984 ], [ -71.385604202348532, 49.669161519676628 ], [ -71.384720194374623, 49.669434602501795 ], [ -71.383413797396585, 49.669403701006082 ], [ -71.382109259752397, 49.669041691509626 ], [ -71.378693316904531, 49.669608998708249 ], [ -71.374863687208659, 49.66928719431521 ], [ -71.371149306486771, 49.671114030475287 ], [ -71.370401402525545, 49.672187962467042 ], [ -71.369623166636956, 49.672755305070581 ], [ -71.367637933775143, 49.673689604824894 ], [ -71.366352128054587, 49.673884640639621 ], [ -71.365019135584419, 49.673644479109662 ], [ -71.363914055371637, 49.672792411793594 ], [ -71.360993629705604, 49.671623098927164 ], [ -71.359287656255489, 49.671396180171939 ], [ -71.356376168609756, 49.669613132431053 ], [ -71.354485935475395, 49.669068418030108 ], [ -71.352002750215547, 49.668712811149426 ], [ -71.350057908442878, 49.669693223321104 ], [ -71.349861601206342, 49.670854867269647 ], [ -71.349589756936709, 49.671216531640297 ], [ -71.347942458391103, 49.671915073576244 ], [ -71.3464155324003, 49.672114666878613 ], [ -71.345138089212725, 49.671940053682064 ], [ -71.344538381827917, 49.671574922459534 ], [ -71.340687446966271, 49.671586371510394 ], [ -71.33992096513316, 49.672034244414377 ], [ -71.337893316969343, 49.672219083593383 ], [ -71.334041095814129, 49.673100729531825 ], [ -71.332615376195363, 49.673665761382175 ], [ -71.324869281779272, 49.673873418274589 ], [ -71.323150360295244, 49.674410846126577 ], [ -71.322110615946173, 49.674187544545639 ], [ -71.321395677384629, 49.674456293362482 ], [ -71.321263497582279, 49.674898806493886 ], [ -71.320798116897933, 49.675273300092243 ], [ -71.319336195957803, 49.675548615123297 ], [ -71.317855547223175, 49.677045032935375 ], [ -71.316352325036505, 49.677825661854364 ], [ -71.315373126352355, 49.677822147597837 ], [ -71.314281460945097, 49.677262908808835 ], [ -71.312933327688839, 49.678018273691123 ], [ -71.311926978219688, 49.678177673451643 ], [ -71.309276575818672, 49.677449140152447 ] ] ] } }
]
}
