{
"type": "FeatureCollection",
"name": "XY_site",
"crs": { "type": "name", "properties": { "name": "urn:ogc:def:crs:OGC:1.3:CRS84" } },
"features": [
{ "type": "Feature", "properties": { "ID_unique": "T_pla1", "Traitement": "TEMOIN", "ID_Placett": "pla1", "N_qgis": 49.664645, "o_qgis": -71.096701666666704 }, "geometry": { "type": "Point", "coordinates": [ -71.096701666666704, 49.664645 ] } },
{ "type": "Feature", "properties": { "ID_unique": "T_pla10", "Traitement": "TEMOIN", "ID_Placett": "pla10", "N_qgis": 49.618345, "o_qgis": -71.176515 }, "geometry": { "type": "Point", "coordinates": [ -71.176515, 49.618345 ] } },
{ "type": "Feature", "properties": { "ID_unique": "T_pla11", "Traitement": "TEMOIN", "ID_Placett": "pla11", "N_qgis": 49.6204416666667, "o_qgis": -71.166056666666705 }, "geometry": { "type": "Point", "coordinates": [ -71.166056666666705, 49.6204416666667 ] } },
{ "type": "Feature", "properties": { "ID_unique": "T_pla12", "Traitement": "TEMOIN", "ID_Placett": "pla12", "N_qgis": 49.6704927, "o_qgis": -71.368103 }, "geometry": { "type": "Point", "coordinates": [ -71.368103, 49.6704927 ] } },
{ "type": "Feature", "properties": { "ID_unique": "T_pla13", "Traitement": "TEMOIN", "ID_Placett": "pla13", "N_qgis": 49.610761666666697, "o_qgis": -71.15193 }, "geometry": { "type": "Point", "coordinates": [ -71.15193, 49.610761666666697 ] } },
{ "type": "Feature", "properties": { "ID_unique": "T_pla14", "Traitement": "TEMOIN", "ID_Placett": "pla14", "N_qgis": 49.617143, "o_qgis": -71.180076 }, "geometry": { "type": "Point", "coordinates": [ -71.180076, 49.617143 ] } },
{ "type": "Feature", "properties": { "ID_unique": "T_pla15", "Traitement": "TEMOIN", "ID_Placett": "pla15", "N_qgis": 49.657516666666702, "o_qgis": -71.081718333333299 }, "geometry": { "type": "Point", "coordinates": [ -71.081718333333299, 49.657516666666702 ] } },
{ "type": "Feature", "properties": { "ID_unique": "T_pla16", "Traitement": "TEMOIN", "ID_Placett": "pla16", "N_qgis": 49.627351666666698, "o_qgis": -71.059641666666707 }, "geometry": { "type": "Point", "coordinates": [ -71.059641666666707, 49.627351666666698 ] } },
{ "type": "Feature", "properties": { "ID_unique": "T_pla17", "Traitement": "TEMOIN", "ID_Placett": "pla17", "N_qgis": 49.642861, "o_qgis": -71.075985 }, "geometry": { "type": "Point", "coordinates": [ -71.075985, 49.642861 ] } },
{ "type": "Feature", "properties": { "ID_unique": "T_pla18", "Traitement": "TEMOIN", "ID_Placett": "pla18", "N_qgis": 49.648031, "o_qgis": -71.08723 }, "geometry": { "type": "Point", "coordinates": [ -71.08723, 49.648031 ] } },
{ "type": "Feature", "properties": { "ID_unique": "T_pla19", "Traitement": "TEMOIN", "ID_Placett": "pla19", "N_qgis": 49.638773, "o_qgis": -71.069848 }, "geometry": { "type": "Point", "coordinates": [ -71.069848, 49.638773 ] } },
{ "type": "Feature", "properties": { "ID_unique": "T_pla2", "Traitement": "TEMOIN", "ID_Placett": "pla2", "N_qgis": 49.6643616666667, "o_qgis": -71.101735 }, "geometry": { "type": "Point", "coordinates": [ -71.101735, 49.6643616666667 ] } },
{ "type": "Feature", "properties": { "ID_unique": "T_pla20", "Traitement": "TEMOIN", "ID_Placett": "pla20", "N_qgis": 49.647131, "o_qgis": -71.086606 }, "geometry": { "type": "Point", "coordinates": [ -71.086606, 49.647131 ] } },
{ "type": "Feature", "properties": { "ID_unique": "T_pla21", "Traitement": "TEMOIN", "ID_Placett": "pla21", "N_qgis": 49.62936, "o_qgis": -70.84895 }, "geometry": { "type": "Point", "coordinates": [ -70.84895, 49.62936 ] } },
{ "type": "Feature", "properties": { "ID_unique": "T_pla22", "Traitement": "TEMOIN", "ID_Placett": "pla22", "N_qgis": 49.6260166666667, "o_qgis": -70.840528333333296 }, "geometry": { "type": "Point", "coordinates": [ -70.840528333333296, 49.6260166666667 ] } },
{ "type": "Feature", "properties": { "ID_unique": "T_pla23", "Traitement": "TEMOIN", "ID_Placett": "pla23", "N_qgis": 49.627505, "o_qgis": -70.842663333333306 }, "geometry": { "type": "Point", "coordinates": [ -70.842663333333306, 49.627505 ] } },
{ "type": "Feature", "properties": { "ID_unique": "T_pla24", "Traitement": "TEMOIN", "ID_Placett": "pla24", "N_qgis": 49.622345, "o_qgis": -70.843148333333303 }, "geometry": { "type": "Point", "coordinates": [ -70.843148333333303, 49.622345 ] } },
{ "type": "Feature", "properties": { "ID_unique": "T_pla25", "Traitement": "TEMOIN", "ID_Placett": "pla25", "N_qgis": 49.623046666666703, "o_qgis": -71.063735 }, "geometry": { "type": "Point", "coordinates": [ -71.063735, 49.623046666666703 ] } },
{ "type": "Feature", "properties": { "ID_unique": "T_pla26", "Traitement": "TEMOIN", "ID_Placett": "pla26", "N_qgis": 49.6294033333333, "o_qgis": -71.0615 }, "geometry": { "type": "Point", "coordinates": [ -71.0615, 49.6294033333333 ] } },
{ "type": "Feature", "properties": { "ID_unique": "T_pla3", "Traitement": "TEMOIN", "ID_Placett": "pla3", "N_qgis": 49.643658333333299, "o_qgis": -71.08566 }, "geometry": { "type": "Point", "coordinates": [ -71.08566, 49.643658333333299 ] } },
{ "type": "Feature", "properties": { "ID_unique": "T_pla4", "Traitement": "TEMOIN", "ID_Placett": "pla4", "N_qgis": 49.6494318, "o_qgis": -71.093194 }, "geometry": { "type": "Point", "coordinates": [ -71.093194, 49.6494318 ] } },
{ "type": "Feature", "properties": { "ID_unique": "T_pla5", "Traitement": "TEMOIN", "ID_Placett": "pla5", "N_qgis": 49.552008333333298, "o_qgis": -71.318006666666705 }, "geometry": { "type": "Point", "coordinates": [ -71.318006666666705, 49.552008333333298 ] } },
{ "type": "Feature", "properties": { "ID_unique": "T_pla6", "Traitement": "TEMOIN", "ID_Placett": "pla6", "N_qgis": 49.6527167, "o_qgis": -71.108275 }, "geometry": { "type": "Point", "coordinates": [ -71.108275, 49.6527167 ] } },
{ "type": "Feature", "properties": { "ID_unique": "T_pla7", "Traitement": "TEMOIN", "ID_Placett": "pla7", "N_qgis": 49.631723333333298, "o_qgis": -71.38986 }, "geometry": { "type": "Point", "coordinates": [ -71.38986, 49.631723333333298 ] } },
{ "type": "Feature", "properties": { "ID_unique": "T_pla8", "Traitement": "TEMOIN", "ID_Placett": "pla8", "N_qgis": 49.64623, "o_qgis": -71.305325 }, "geometry": { "type": "Point", "coordinates": [ -71.305325, 49.64623 ] } },
{ "type": "Feature", "properties": { "ID_unique": "T_pla9", "Traitement": "TEMOIN", "ID_Placett": "pla9", "N_qgis": 49.645696666666701, "o_qgis": -71.136573333333303 }, "geometry": { "type": "Point", "coordinates": [ -71.136573333333303, 49.645696666666701 ] } },
{ "type": "Feature", "properties": { "ID_unique": "R_pla27", "Traitement": "RECUP", "ID_Placett": "pla27", "N_qgis": 49.60862667, "o_qgis": -71.17465 }, "geometry": { "type": "Point", "coordinates": [ -71.17465, 49.60862667 ] } },
{ "type": "Feature", "properties": { "ID_unique": "R_pla28", "Traitement": "RECUP", "ID_Placett": "pla28", "N_qgis": 49.608865, "o_qgis": -71.172958333333298 }, "geometry": { "type": "Point", "coordinates": [ -71.172958333333298, 49.608865 ] } },
{ "type": "Feature", "properties": { "ID_unique": "R_pla29", "Traitement": "RECUP", "ID_Placett": "pla29", "N_qgis": 49.5826667, "o_qgis": -71.3342722 }, "geometry": { "type": "Point", "coordinates": [ -71.3342722, 49.5826667 ] } },
{ "type": "Feature", "properties": { "ID_unique": "R_pla30", "Traitement": "RECUP", "ID_Placett": "pla30", "N_qgis": 49.59927, "o_qgis": -71.058471666666705 }, "geometry": { "type": "Point", "coordinates": [ -71.058471666666705, 49.59927 ] } },
{ "type": "Feature", "properties": { "ID_unique": "R_pla31", "Traitement": "RECUP", "ID_Placett": "pla31", "N_qgis": 49.6085766666667, "o_qgis": -71.176776666666697 }, "geometry": { "type": "Point", "coordinates": [ -71.176776666666697, 49.6085766666667 ] } },
{ "type": "Feature", "properties": { "ID_unique": "R_pla32", "Traitement": "RECUP", "ID_Placett": "pla32", "N_qgis": 49.5985266666667, "o_qgis": -71.054183333333299 }, "geometry": { "type": "Point", "coordinates": [ -71.054183333333299, 49.5985266666667 ] } },
{ "type": "Feature", "properties": { "ID_unique": "R_pla33", "Traitement": "RECUP", "ID_Placett": "pla33", "N_qgis": 49.598206666666698, "o_qgis": -71.06122 }, "geometry": { "type": "Point", "coordinates": [ -71.06122, 49.598206666666698 ] } },
{ "type": "Feature", "properties": { "ID_unique": "R_pla34", "Traitement": "RECUP", "ID_Placett": "pla34", "N_qgis": 49.600948333333299, "o_qgis": -71.05441 }, "geometry": { "type": "Point", "coordinates": [ -71.05441, 49.600948333333299 ] } },
{ "type": "Feature", "properties": { "ID_unique": "R_pla35", "Traitement": "RECUP", "ID_Placett": "pla35", "N_qgis": 49.59744, "o_qgis": -71.063656666666702 }, "geometry": { "type": "Point", "coordinates": [ -71.063656666666702, 49.59744 ] } },
{ "type": "Feature", "properties": { "ID_unique": "R_pla36", "Traitement": "RECUP", "ID_Placett": "pla36", "N_qgis": 49.602251666666703, "o_qgis": -71.053038333333305 }, "geometry": { "type": "Point", "coordinates": [ -71.053038333333305, 49.602251666666703 ] } },
{ "type": "Feature", "properties": { "ID_unique": "R_pla37", "Traitement": "RECUP", "ID_Placett": "pla37", "N_qgis": 49.589076, "o_qgis": -71.044593 }, "geometry": { "type": "Point", "coordinates": [ -71.044593, 49.589076 ] } },
{ "type": "Feature", "properties": { "ID_unique": "R_pla38", "Traitement": "RECUP", "ID_Placett": "pla38", "N_qgis": 49.589753, "o_qgis": -71.044271 }, "geometry": { "type": "Point", "coordinates": [ -71.044271, 49.589753 ] } },
{ "type": "Feature", "properties": { "ID_unique": "R_pla39", "Traitement": "RECUP", "ID_Placett": "pla39", "N_qgis": 49.603883, "o_qgis": -71.043969 }, "geometry": { "type": "Point", "coordinates": [ -71.043969, 49.603883 ] } },
{ "type": "Feature", "properties": { "ID_unique": "R_pla40", "Traitement": "RECUP", "ID_Placett": "pla40", "N_qgis": 49.593261, "o_qgis": -71.039615 }, "geometry": { "type": "Point", "coordinates": [ -71.039615, 49.593261 ] } },
{ "type": "Feature", "properties": { "ID_unique": "R_pla41", "Traitement": "RECUP", "ID_Placett": "pla41", "N_qgis": 49.592316, "o_qgis": -71.037833 }, "geometry": { "type": "Point", "coordinates": [ -71.037833, 49.592316 ] } },
{ "type": "Feature", "properties": { "ID_unique": "R_pla42", "Traitement": "RECUP", "ID_Placett": "pla42", "N_qgis": 49.5915866666667, "o_qgis": -71.037395 }, "geometry": { "type": "Point", "coordinates": [ -71.037395, 49.5915866666667 ] } },
{ "type": "Feature", "properties": { "ID_unique": "R_pla43", "Traitement": "RECUP", "ID_Placett": "pla43", "N_qgis": 49.574168333333297, "o_qgis": -71.029673333333307 }, "geometry": { "type": "Point", "coordinates": [ -71.029673333333307, 49.574168333333297 ] } },
{ "type": "Feature", "properties": { "ID_unique": "R_pla44", "Traitement": "RECUP", "ID_Placett": "pla44", "N_qgis": 49.60046, "o_qgis": -71.044911666666707 }, "geometry": { "type": "Point", "coordinates": [ -71.044911666666707, 49.60046 ] } },
{ "type": "Feature", "properties": { "ID_unique": "R_pla45", "Traitement": "RECUP", "ID_Placett": "pla45", "N_qgis": 49.602736666666701, "o_qgis": -71.044436666666698 }, "geometry": { "type": "Point", "coordinates": [ -71.044436666666698, 49.602736666666701 ] } },
{ "type": "Feature", "properties": { "ID_unique": "R_pla46", "Traitement": "RECUP", "ID_Placett": "pla46", "N_qgis": 49.618641666666697, "o_qgis": -71.315696666666696 }, "geometry": { "type": "Point", "coordinates": [ -71.315696666666696, 49.618641666666697 ] } },
{ "type": "Feature", "properties": { "ID_unique": "R_pla47", "Traitement": "RECUP", "ID_Placett": "pla47", "N_qgis": 49.620128333333298, "o_qgis": -71.309826666666694 }, "geometry": { "type": "Point", "coordinates": [ -71.309826666666694, 49.620128333333298 ] } },
{ "type": "Feature", "properties": { "ID_unique": "R_pla48", "Traitement": "RECUP", "ID_Placett": "pla48", "N_qgis": 49.601255, "o_qgis": -71.307256 }, "geometry": { "type": "Point", "coordinates": [ -71.307256, 49.601255 ] } },
{ "type": "Feature", "properties": { "ID_unique": "R_pla49", "Traitement": "RECUP", "ID_Placett": "pla49", "N_qgis": 49.599011, "o_qgis": -71.304916 }, "geometry": { "type": "Point", "coordinates": [ -71.304916, 49.599011 ] } },
{ "type": "Feature", "properties": { "ID_unique": "R_pla50", "Traitement": "RECUP", "ID_Placett": "pla50", "N_qgis": 49.58353, "o_qgis": -71.33352 }, "geometry": { "type": "Point", "coordinates": [ -71.33352, 49.58353 ] } },
{ "type": "Feature", "properties": { "ID_unique": "R_pla51", "Traitement": "RECUP", "ID_Placett": "pla51", "N_qgis": 49.592611666666699, "o_qgis": -71.328213333333295 }, "geometry": { "type": "Point", "coordinates": [ -71.328213333333295, 49.592611666666699 ] } },
{ "type": "Feature", "properties": { "ID_unique": "R_pla52", "Traitement": "RECUP", "ID_Placett": "pla52", "N_qgis": 49.597285, "o_qgis": -71.325216 }, "geometry": { "type": "Point", "coordinates": [ -71.325216, 49.597285 ] } }
]
}
